COSMOS 2361 [-]         
1 25590U 98076A   23021.47870910  .00000107  00000+0  99080-4 0  9992
2 25590  82.9324  44.9957 0030627 324.5956 145.0088 13.73041490206456
COSMOS 2378 [-]         
1 26818U 01023A   23022.47355046  .00000121  00000+0  11317-3 0  9993
2 26818  82.9266  61.9060 0031432 264.9630 215.5575 13.73985652 84387
COSMOS 2389 [-]         
1 27436U 02026A   23021.69062006  .00000088  00000+0  74733-4 0  9992
2 27436  82.9512   8.5051 0047516 125.7704  47.3846 13.74993807 36416
COSMOS 2398 [-]         
1 27818U 03023A   23022.40425191  .00000079  00000+0  69455-4 0  9997
2 27818  82.9508 330.2847 0031652 161.4851 315.0946 13.72228643983411
COSMOS 2407 [+]         
1 28380U 04028A   23022.17429372  .00000115  00000+0  10198-3 0  9997
2 28380  82.9601 274.4899 0040236 124.6878  28.6900 13.76133961929233
COSMOS 2414 [+]         
1 28521U 05002A   23021.65404739  .00000127  00000+0  93506-4 0  9997
2 28521  82.9486 263.2546 0038955 272.3220  87.3483 13.87681044911807
COSMOS 2429 [-]         
1 32052U 07038A   23021.46470827  .00000084  00000+0  71596-4 0  9999
2 32052  82.9789  41.6809 0039856 105.0933 255.4638 13.74981216770961
COSMOS 2454 [-]         
1 35635U 09039A   23021.68432222  .00000119  00000+0  84234-4 0  9995
2 35635  82.9545 249.1714 0018501 211.0273 211.8670 13.89709781685003
COSMOS 2463 [+]         
1 36519U 10017A   23021.72695465  .00000095  00000+0  89099-4 0  9997
2 36519  82.9591  82.4965 0035580 339.4720 140.3276 13.71491177637700
